NORAD_CAT_ID,OBJECT_NAME,OBJECT_TYPE,EPOCH,MEAN_MOTION,ECCENTRICITY,INCLINATION,RA_OF_ASC_NODE,ARG_OF_PERICENTER,MEAN_ANOMALY,BSTAR,MEAN_MOTION_DOT,MEAN_MOTION_DDOT,TLE_LINE0,TLE_LINE1,TLE_LINE2,SEMIMAJOR_AXIS,PERIOD,APOGEE,PERIGEE,DECAYED
55398.0,STARLINK-5275,PAYLOAD,2023-04-20 16:33:26,15.69913431,0.000328,69.9995,227.5655,236.0223,124.0661,1.9054e-06,1.6e-07,0.0,0 STARLINK-5275,1 55398U 23014H   23110.68989275  .00000016  00000-0  19054-5 0  9992,2 55398  69.9995 227.5655 0003280 236.0223 124.0661 15.69913431 12603,6737.282,91.725,361.357,356.937,0.0
55398.0,STARLINK-5275,PAYLOAD,2023-04-21 06:19:28,15.69749541,0.0002834,69.9991,225.9513,256.392,103.696,-0.00018396,-0.00022112,0.0,0 STARLINK-5275,1 55398U 23014H   23111.26352247 -.00022112  00000-0 -18396-3 0  9999,2 55398  69.9991 225.9513 0002834 256.3920 103.6960 15.69749541 13635,6737.751,91.734,361.525,357.706,0.0
55398.0,STARLINK-5275,PAYLOAD,2023-04-22 00:40:26,15.69815671,0.0002829,69.9997,223.8032,240.8359,119.2554,0.00015362,0.00018215,0.0,0 STARLINK-5275,1 55398U 23014H   23112.02808538  .00018215  00000-0  15362-3 0  9990,2 55398  69.9997 223.8032 0002829 240.8359 119.2554 15.69815671 13755,6737.561,91.731,361.332,357.52,0.0
55398.0,STARLINK-5275,PAYLOAD,2023-04-22 17:29:49,15.69700907,0.0002669,69.9978,221.8303,251.1784,108.9122,-0.00021686,-0.00025965,0.0,0 STARLINK-5275,1 55398U 23014H   23112.72904366 -.00025965  00000-0 -21686-3 0  9991,2 55398  69.9978 221.8303 0002669 251.1784 108.9122 15.69700907 12921,6737.89,91.737,361.553,357.956,0.0
55398.0,STARLINK-5275,PAYLOAD,2023-04-23 16:25:46,15.69934792,0.0003195,69.9983,219.1421,265.9303,94.1527,2.3299e-05,2.591e-05,0.0,0 STARLINK-5275,1 55398U 23014H   23113.68456353  .00002591  00000-0  23299-4 0  9996,2 55398  69.9983 219.1421 0003195 265.9303  94.1527 15.69934792 14011,6737.221,91.724,361.238,356.933,0.0
55398.0,STARLINK-5275,PAYLOAD,2023-04-24 09:15:02,15.69933002,0.000344,69.9982,217.1708,268.9616,91.1186,1.2683e-05,1.313e-05,0.0,0 STARLINK-5275,1 55398U 23014H   23114.38544635  .00001313  00000-0  12683-4 0  9991,2 55398  69.9982 217.1708 0003440 268.9616  91.1186 15.69933002 14122,6737.226,91.724,361.408,356.773,0.0
55398.0,STARLINK-5275,PAYLOAD,2023-04-24 15:22:28,15.6958749,0.0003149,69.9979,216.459,293.532,66.5545,-0.00032199,-0.00038218,0.0,0 STARLINK-5275,1 55398U 23014H   23114.64061297 -.00038218  00000-0 -32199-3 0  9997,2 55398  69.9979 216.4590 0003149 293.5320  66.5545 15.69587490 13222,6738.214,91.744,362.201,357.957,0.0
55398.0,STARLINK-5275,PAYLOAD,2023-04-25 09:43:09,15.69882876,0.0003244,69.9976,214.3044,268.8776,91.2048,-5.2289e-05,-6.484e-05,0.0,0 STARLINK-5275,1 55398U 23014H   23115.40497007 -.00006484  00000-0 -52289-4 0  9997,2 55398  69.9976 214.3044 0003244 268.8776  91.2048 15.69882876 13348,6737.369,91.727,361.42,357.048,0.0
55398.0,STARLINK-5275,PAYLOAD,2023-04-25 18:53:38,15.69908354,0.0003188,69.9972,213.2295,264.0088,96.0745,-2.1753e-05,-2.826e-05,0.0,0 STARLINK-5275,1 55398U 23014H   23115.78725247 -.00002826  00000-0 -21753-4 0  9996,2 55398  69.9972 213.2295 0003188 264.0088  96.0745 15.69908354 13405,6737.296,91.725,361.309,357.013,0.0
55398.0,STARLINK-5275,PAYLOAD,2023-04-25 18:53:42,15.69856617,0.0003317,69.9987,213.2314,259.1867,100.8955,-7.3845e-05,-9.057e-05,0.0,0 STARLINK-5275,1 55398U 23014H   23115.78729191 -.00009057  00000-0 -73845-4 0  9990,2 55398  69.9987 213.2314 0003317 259.1867 100.8955 15.69856617 13408,6737.444,91.728,361.544,357.074,0.0
55398.0,STARLINK-5275,PAYLOAD,2023-04-26 10:11:05,15.69960594,0.0003465,69.9997,211.4415,271.5288,88.5511,2.624e-05,2.948e-05,0.0,0 STARLINK-5275,1 55398U 23014H   23116.42437371  .00002948  00000-0  26240-4 0  9995,2 55398  69.9997 211.4415 0003465 271.5288  88.5511 15.69960594 14445,6737.147,91.722,361.346,356.677,0.0
55398.0,STARLINK-5275,PAYLOAD,2023-04-26 19:21:36,15.69953838,0.000379,69.9987,210.3641,275.9608,84.1156,1.9794e-05,2.171e-05,0.0,0 STARLINK-5275,1 55398U 23014H   23116.80667343  .00002171  00000-0  19794-4 0  9995,2 55398  69.9987 210.3641 0003790 275.9608  84.1156 15.69953838 14505,6737.166,91.722,361.584,356.478,0.0
55398.0,STARLINK-5275,PAYLOAD,2023-04-27 09:07:25,15.69900785,0.0003126,69.9981,208.7523,266.6499,93.4339,2.5813e-05,2.889e-05,0.0,0 STARLINK-5275,1 55398U 23014H   23117.38016029  .00002889  00000-0  25813-4 0  9993,2 55398  69.9981 208.7523 0003126 266.6499  93.4339 15.69900785 13651,6737.318,91.726,361.289,357.077,0.0
55398.0,STARLINK-5275,PAYLOAD,2023-04-27 18:17:56,15.69918239,0.0002897,69.9963,207.6755,261.179,98.9077,1.6049e-05,1.717e-05,0.0,0 STARLINK-5275,1 55398U 23014H   23117.76245397  .00001717  00000-0  16049-4 0  9997,2 55398  69.9963 207.6755 0002897 261.1790  98.9077 15.69918239 13713,6737.268,91.725,361.085,357.181,0.0
55398.0,STARLINK-5275,PAYLOAD,2023-04-27 22:53:11,15.69932086,0.0003468,69.998,207.1405,272.0818,87.9981,-8.0928e-06,-1.186e-05,0.0,0 STARLINK-5275,1 55398U 23014H   23117.95360116 -.00001186  00000-0 -80928-5 0  9995,2 55398  69.9980 207.1405 0003468 272.0818  87.9981 15.69932086 13747,6737.228,91.724,361.43,356.757,0.0
55398.0,STARLINK-5275,PAYLOAD,2023-04-28 12:38:56,15.6994094,0.0003507,69.9997,205.5323,275.1447,84.9349,-2.4872e-05,-3.205e-05,0.0,0 STARLINK-5275,1 55398U 23014H   23118.52704616 -.00003205  00000-0 -24872-4 0  9995,2 55398  69.9997 205.5323 0003507 275.1447  84.9349 15.69940940 14779,6737.203,91.723,361.431,356.705,0.0
55398.0,STARLINK-5275,PAYLOAD,2023-04-28 23:21:12,15.6991665,0.0003354,69.9984,204.2747,269.0753,91.0058,1.3368e-05,1.394e-05,0.0,0 STARLINK-5275,1 55398U 23014H   23118.97306436  .00001394  00000-0  13368-4 0  9995,2 55398  69.9984 204.2747 0003354 269.0753  91.0058 15.69916650 13904,6737.272,91.725,361.397,356.878,0.0
55398.0,STARLINK-5275,PAYLOAD,2023-04-29 08:31:43,15.69917009,0.0003055,69.9979,203.2,264.6436,95.4412,1.0629e-05,1.065e-05,0.0,0 STARLINK-5275,1 55398U 23014H   23119.35536626  .00001065  00000-0  10629-4 0  9996,2 55398  69.9979 203.2000 0003055 264.6436  95.4412 15.69917009 14908,6737.271,91.725,361.195,357.078,0.0
55398.0,STARLINK-5275,PAYLOAD,2023-04-29 17:42:14,15.6992475,0.0002884,69.9975,202.125,259.7515,100.3356,7.2244e-06,6.56e-06,0.0,0 STARLINK-5275,1 55398U 23014H   23119.73766320  .00000656  00000-0  72244-5 0  9991,2 55398  69.9975 202.1250 0002884 259.7515 100.3356 15.69924750 14028,6737.249,91.724,361.057,357.171,0.0
55398.0,STARLINK-5275,PAYLOAD,2023-04-30 08:59:46,15.69914635,0.000319,69.9991,200.3373,264.7209,95.3623,-3.7712e-06,-6.66e-06,0.0,0 STARLINK-5275,1 55398U 23014H   23120.37484080 -.00000666  00000-0 -37712-5 0  9997,2 55398  69.9991 200.3373 0003190 264.7209  95.3623 15.69914635 14121,6737.278,91.725,361.292,356.994,0.0
55398.0,STARLINK-5275,PAYLOAD,2023-04-30 13:35:01,15.69917993,0.0003027,69.9983,199.7984,265.3629,94.7221,-3.0884e-06,-5.84e-06,0.0,0 STARLINK-5275,1 55398U 23014H   23120.56598946 -.00000584  00000-0 -30884-5 0  9997,2 55398  69.9983 199.7984 0003027 265.3629  94.7221 15.69917993 15097,6737.269,91.725,361.173,357.094,0.0
55398.0,STARLINK-5275,PAYLOAD,2023-04-30 16:38:31,15.6992083,0.0003125,69.9983,199.4402,264.0208,96.0631,2.5914e-07,-1.81e-06,0.0,0 STARLINK-5275,1 55398U 23014H   23120.69342057 -.00000181  00000-0  25914-6 0  9992,2 55398  69.9983 199.4402 0003125 264.0208  96.0631 15.69920830 14179,6737.261,91.724,361.231,357.02,0.0
55398.0,STARLINK-5275,PAYLOAD,2023-05-01 12:31:17,15.69920738,0.0003238,69.9985,197.1108,258.7203,101.3628,1.5262e-05,1.622e-05,0.0,0 STARLINK-5275,1 55398U 23014H   23121.52173395  .00001622  00000-0  15262-4 0  9995,2 55398  69.9985 197.1108 0003238 258.7203 101.3628 15.69920738 15241,6737.261,91.724,361.307,356.944,0.0
55398.0,STARLINK-5275,PAYLOAD,2023-05-01 17:06:33,15.69915735,0.0003104,69.9979,196.5708,267.2551,92.829,-4.5476e-06,-7.59e-06,0.0,0 STARLINK-5275,1 55398U 23014H   23121.71289122 -.00000759  00000-0 -45476-5 0  9995,2 55398  69.9979 196.5708 0003104 267.2551  92.8290 15.69915735 14335,6737.275,91.725,361.231,357.049,0.0
55398.0,STARLINK-5275,PAYLOAD,2023-05-02 05:20:34,15.69921638,0.0003623,69.9963,195.1379,263.2748,96.8035,1.0048e-05,9.95e-06,0.0,0 STARLINK-5275,1 55398U 23014H   23122.22261706  .00000995  00000-0  10048-4 0  9996,2 55398  69.9963 195.1379 0003623 263.2748  96.8035 15.69921638 14416,6737.258,91.724,361.564,356.682,0.0
55398.0,STARLINK-5275,PAYLOAD,2023-05-02 12:59:19,15.69921416,0.0003222,69.9969,194.242,264.9043,95.1785,1.6818e-05,1.81e-05,0.0,0 STARLINK-5275,1 55398U 23014H   23122.54120002  .00001810  00000-0  16818-4 0  9992,2 55398  69.9969 194.2420 0003222 264.9043  95.1785 15.69921416 15408,6737.259,91.724,361.295,356.953,0.0
55398.0,STARLINK-5275,PAYLOAD,2023-05-02 16:02:51,15.69904775,0.0002689,69.9979,193.8847,275.2248,84.864,4.9061e-06,3.77e-06,0.0,0 STARLINK-5275,1 55398U 23014H   23122.66864930  .00000377  00000-0  49061-5 0  9994,2 55398  69.9979 193.8847 0002689 275.2248  84.8640 15.69904775 14486,6737.306,91.725,360.983,357.36,0.0
55398.0,STARLINK-5275,PAYLOAD,2023-05-03 04:16:51,15.69919892,0.000327,69.998,192.4525,266.7775,93.3047,-4.2088e-07,-2.63e-06,0.0,0 STARLINK-5275,1 55398U 23014H   23123.17837435 -.00000263  00000-0 -42088-6 0  9990,2 55398  69.9980 192.4525 0003270 266.7775  93.3047 15.69919892 14564,6737.263,91.724,361.331,356.925,0.0
55398.0,STARLINK-5275,PAYLOAD,2023-05-03 13:27:21,15.69933159,0.0003074,69.9985,191.3781,255.8686,104.2168,-4.0953e-06,-7.05e-06,0.0,0 STARLINK-5275,1 55398U 23014H   23123.56066619 -.00000705  00000-0 -40953-5 0  9990,2 55398  69.9985 191.3781 0003074 255.8686 104.2168 15.69933159 15562,6737.225,91.724,361.161,357.019,0.0
55398.0,STARLINK-5275,PAYLOAD,2023-05-03 16:30:52,15.69923114,0.0002888,69.9982,191.0187,269.1953,90.8911,-9.613e-09,-2.14e-06,0.0,0 STARLINK-5275,1 55398U 23014H   23123.68810634 -.00000214  00000-0 -96130-8 0  9993,2 55398  69.9982 191.0187 0002888 269.1953  90.8911 15.69923114 15581,6737.254,91.724,361.065,357.173,0.0
